[{"OBJECT_NAME":"COSMOS 2572","OBJECT_ID":"2023-182A","EPOCH":"2026-03-09T13:27:58.906080","MEAN_MOTION":15.90100186,"ECCENTRICITY":0.00176756,"INCLINATION":96.6789,"RA_OF_ASC_NODE":174.2379,"ARG_OF_PERICENTER":207.9935,"MEAN_ANOMALY":152.0391,"EPHEMERIS_TYPE":0,"CLASSIFICATION_TYPE":"U","NORAD_CAT_ID":58435,"ELEMENT_SET_NO":999,"REV_AT_EPOCH":13262,"BSTAR":0.00022334342,"MEAN_MOTION_DOT":0.00067086,"MEAN_MOTION_DDOT":3.470467e-6},{"OBJECT_NAME":"STARLINK-36649","OBJECT_ID":"2026-033S","EPOCH":"2026-03-09T22:27:17.008992","MEAN_MOTION":15.8218826,"ECCENTRICITY":0.00016426,"INCLINATION":42.9974,"RA_OF_ASC_NODE":269.8571,"ARG_OF_PERICENTER":282.2909,"MEAN_ANOMALY":77.7779,"EPHEMERIS_TYPE":0,"CLASSIFICATION_TYPE":"U","NORAD_CAT_ID":67837,"ELEMENT_SET_NO":999,"REV_AT_EPOCH":466,"BSTAR":0.0024177604,"MEAN_MOTION_DOT":0.00546427,"MEAN_MOTION_DDOT":0}]
